FENGYUN 1C DEB          
1 30664U 99025APW 17345.73551873  .00003608  00000-0  66715-3 0  9998
2 30664  98.9926 254.4777 0051311  64.1999 296.4482 14.65265832568858
